STARLINK-31341          
1 59155U 24044D   26068.10860148 -.00001087  00000+0 -30015-4 0  9999
2 59155  42.9999 114.0181 0000704 228.2459 131.8332 15.27576268113430
FLOCK 4G-1              
1 62666U 25009BK  26068.75951132  .00013534  00000+0  50654-3 0  9995
2 62666  97.4059 151.3158 0003180 323.1401  36.9619 15.27421081 63725
